{
  "norad_id": 67504,
  "name": "STARLINK-36512",
  "history": [
    {
      "epoch": "2026-04-14T17:02:10.707360Z",
      "apogee_km": 483.9609176027807,
      "perigee_km": 482.12486586375417,
      "latitude_deg": -2.340159286170267e-05,
      "longitude_deg": 12.289492166047625,
      "height_km": 482.7123162380994,
      "semi_major_axis_km": 6861.179891733267,
      "eccentricity": 0.0001338,
      "inclination_deg": 43.0022,
      "raan_deg": 110.7165,
      "arg_perigee_deg": 276.7235,
      "mean_anomaly_deg": 83.3464,
      "mean_motion_rev_day": 15.27582072
    },
    {
      "epoch": "2026-04-15T16:34:31.062720Z",
      "apogee_km": 484.1124070633723,
      "perigee_km": 481.9140945230174,
      "latitude_deg": 4.021127711566752e-06,
      "longitude_deg": 12.697397359159645,
      "height_km": 482.59388684814166,
      "semi_major_axis_km": 6861.150250793195,
      "eccentricity": 0.0001602,
      "inclination_deg": 43.0003,
      "raan_deg": 105.1759,
      "arg_perigee_deg": 280.2861,
      "mean_anomaly_deg": 79.781,
      "mean_motion_rev_day": 15.27591971
    },
    {
      "epoch": "2026-04-16T16:06:51.933888Z",
      "apogee_km": 483.82649404985386,
      "perigee_km": 482.24019146660794,
      "latitude_deg": 8.957877787205302e-06,
      "longitude_deg": 13.104823557848745,
      "height_km": 482.7268117977806,
      "semi_major_axis_km": 6861.170342758231,
      "eccentricity": 0.0001156,
      "inclination_deg": 43.0016,
      "raan_deg": 99.637,
      "arg_perigee_deg": 276.022,
      "mean_anomaly_deg": 84.05,
      "mean_motion_rev_day": 15.27585261
    },
    {
      "epoch": "2026-04-17T07:48:25.901856Z",
      "apogee_km": 483.9619108165016,
      "perigee_km": 482.09306683303475,
      "latitude_deg": 1.681737530153637e-05,
      "longitude_deg": 133.37912061931772,
      "height_km": 482.8494191133894,
      "semi_major_axis_km": 6861.164488824767,
      "eccentricity": 0.00013619,
      "inclination_deg": 43.0018,
      "raan_deg": 95.9473,
      "arg_perigee_deg": 267.2354,
      "mean_anomaly_deg": 92.8342,
      "mean_motion_rev_day": 15.27587216
    },
    {
      "epoch": "2026-04-18T15:11:34.427904Z",
      "apogee_km": 483.860748462017,
      "perigee_km": 482.34578661094474,
      "latitude_deg": 6.121877869737397e-05,
      "longitude_deg": 13.915978578519995,
      "height_km": 482.78339206054204,
      "semi_major_axis_km": 6861.24026753648,
      "eccentricity": 0.0001104,
      "inclination_deg": 43.0011,
      "raan_deg": 88.5586,
      "arg_perigee_deg": 277.3153,
      "mean_anomaly_deg": 82.7574,
      "mean_motion_rev_day": 15.27561909
    },
    {
      "epoch": "2026-04-19T14:43:56.271072Z",
      "apogee_km": 483.80991547705617,
      "perigee_km": 482.23596538672155,
      "latitude_deg": 2.8969564801873097e-05,
      "longitude_deg": 14.318401374822988,
      "height_km": 482.86460182890403,
      "semi_major_axis_km": 6861.159940431889,
      "eccentricity": 0.0001147,
      "inclination_deg": 42.9966,
      "raan_deg": 83.0188,
      "arg_perigee_deg": 265.2207,
      "mean_anomaly_deg": 94.8514,
      "mean_motion_rev_day": 15.27588735
    },
    {
      "epoch": "2026-04-20T09:33:48.485376Z",
      "apogee_km": 483.73930354932236,
      "perigee_km": 482.2638843060831,
      "latitude_deg": 4.394115168995397e-05,
      "longitude_deg": 86.64868767049184,
      "height_km": 482.9077946756175,
      "semi_major_axis_km": 6861.1385939277025,
      "eccentricity": 0.00010752,
      "inclination_deg": 43.0015,
      "raan_deg": 78.59,
      "arg_perigee_deg": 259.8781,
      "mean_anomaly_deg": 100.195,
      "mean_motion_rev_day": 15.27595864
    },
    {
      "epoch": "2026-04-21T13:48:36.860832Z",
      "apogee_km": 483.41838585322876,
      "perigee_km": 482.5621171722396,
      "latitude_deg": -3.0254677038899247e-05,
      "longitude_deg": 15.13748764617094,
      "height_km": 482.5613946431361,
      "semi_major_axis_km": 6861.127251512734,
      "eccentricity": 6.24e-05,
      "inclination_deg": 42.9985,
      "raan_deg": 71.9405,
      "arg_perigee_deg": 61.6126,
      "mean_anomaly_deg": 298.4788,
      "mean_motion_rev_day": 15.27599652
    },
    {
      "epoch": "2026-04-22T05:30:10.102176Z",
      "apogee_km": 483.828851044801,
      "perigee_km": 482.1839605246978,
      "latitude_deg": -1.9438171533209528e-05,
      "longitude_deg": 135.41642108803006,
      "height_km": 482.77756091200445,
      "semi_major_axis_km": 6861.143405784749,
      "eccentricity": 0.00011987,
      "inclination_deg": 43.0026,
      "raan_deg": 68.2524,
      "arg_perigee_deg": 270.3949,
      "mean_anomaly_deg": 89.6765,
      "mean_motion_rev_day": 15.27594257
    },
    {
      "epoch": "2026-04-23T03:28:21.124416Z",
      "apogee_km": 483.3864934508956,
      "perigee_km": 482.5232308727982,
      "latitude_deg": -4.76968872376839e-06,
      "longitude_deg": 159.79764391428236,
      "height_km": 482.9451304443474,
      "semi_major_axis_km": 6861.091862161847,
      "eccentricity": 6.291e-05,
      "inclination_deg": 42.9981,
      "raan_deg": 63.0818,
      "arg_perigee_deg": 240.191,
      "mean_anomaly_deg": 119.8879,
      "mean_motion_rev_day": 15.27611471
    },
    {
      "epoch": "2026-04-24T20:16:25.965408Z",
      "apogee_km": 484.03185473416124,
      "perigee_km": 482.0393702074998,
      "latitude_deg": -3.6375606967061475e-06,
      "longitude_deg": -103.49917964532814,
      "height_km": 482.66364397258496,
      "semi_major_axis_km": 6861.17261247083,
      "eccentricity": 0.0001452,
      "inclination_deg": 43.0004,
      "raan_deg": 53.4808,
      "arg_perigee_deg": 278.5879,
      "mean_anomaly_deg": 81.4808,
      "mean_motion_rev_day": 15.27584503
    }
  ]
}